UNKNOWN                 
1 81779U          26031.46228066 -.00007687  00000+0 -44121+0 0  9998
2 81779  54.5026 135.0102 1528797  98.0700 279.5672  9.34169737484969
UNKNOWN                 
1 81792U          26032.15457541  .00001669  00000+0  60629-3 0  9999
2 81792  65.8312 342.5504 0895515 260.1964  89.6941 13.11209694 86645
UNKNOWN                 
1 81812U          26034.19647060  .00004628  00000+0  32745-1 0  9999
2 81812 103.8135 317.6036 0236837 146.8821 214.7314 12.37774517547055
UNKNOWN                 
1 81816U          26033.77655478  .00001676  00000+0  12658-2 0  9990
2 81816  66.2378 166.3736 0175613 217.2355 141.6438 13.89615994616575
UNKNOWN                 
1 81819U          26034.49830558  .00000831  00000+0  59306-2 0  9990
2 81819 102.1758 137.4066 0030172  16.2576 343.9452 12.47778646554590
UNKNOWN                 
1 81824U          26034.42598350  .00005427  00000+0  18703-2 0  9992
2 81824  65.8436 193.3792 0044692 306.0892  53.6066 14.36086238632158
UNKNOWN                 
1 81833U          26028.67619235  .00000370  00000+0  13180-2 0  9994
2 81833  90.2433   3.9307 0025148 261.8702  97.9564 12.93746880458582
UNKNOWN                 
1 81838U          26026.69871619  .00010833  00000+0  23584-2 0  9999
2 81838  67.7595 148.7226 0041952 323.4616 103.9601 14.57662167639884
UNKNOWN                 
1 81844U          26034.54851586  .00005490  00000+0  19422-2 0  9999
2 81844  82.9068 239.2437 0061679 351.2577   8.7531 14.33416240630459
UNKNOWN                 
1 81845U          26034.48719130  .00003789  00000+0  41503-3 0  9996
2 81845  97.6756 224.6096 0088173 130.8976 260.3577 14.85511968657352
UNKNOWN                 
1 81864U          26033.13071996  .00002440  00000+0  94023-3 0  9997
2 81864  65.6733 306.7363 0766542 350.9348   7.8479 13.32666652557685
UNKNOWN                 
1 81865U          26034.34328360  .00001365  00000+0  11146-2 0  9991
2 81865  82.8077 348.0682 0060149 214.5707 300.5827 13.88194750615844
