CCSDS_OMM_VERS = 2.0
CREATION_DATE  = 
ORIGINATOR     = 

OBJECT_NAME    = UNKNOWN
OBJECT_ID      = 
CENTER_NAME    = EARTH
REF_FRAME      = TEME
TIME_SYSTEM    = UTC
MEAN_ELEMENT_THEORY = SGP/SGP4

EPOCH          = 2026-01-31T11:05:41.049024
MEAN_MOTION    = 9.34169737
ECCENTRICITY   = .1528797
INCLINATION    = 54.5026
RA_OF_ASC_NODE = 135.0102
ARG_OF_PERICENTER = 98.0700
MEAN_ANOMALY   = 279.5672

EPHEMERIS_TYPE = 0
CLASSIFICATION_TYPE = U
NORAD_CAT_ID   = 81779
ELEMENT_SET_NO = 999
REV_AT_EPOCH   = 48496
BSTAR          = -.44121E+0
MEAN_MOTION_DOT = -.7687E-4
MEAN_MOTION_DDOT = 0

CCSDS_OMM_VERS = 2.0
CREATION_DATE  = 
ORIGINATOR     = 

OBJECT_NAME    = UNKNOWN
OBJECT_ID      = 
CENTER_NAME    = EARTH
REF_FRAME      = TEME
TIME_SYSTEM    = UTC
MEAN_ELEMENT_THEORY = SGP/SGP4

EPOCH          = 2026-02-01T03:42:35.315424
MEAN_MOTION    = 13.11209694
ECCENTRICITY   = .0895515
INCLINATION    = 65.8312
RA_OF_ASC_NODE = 342.5504
ARG_OF_PERICENTER = 260.1964
MEAN_ANOMALY   = 89.6941

EPHEMERIS_TYPE = 0
CLASSIFICATION_TYPE = U
NORAD_CAT_ID   = 81792
ELEMENT_SET_NO = 999
REV_AT_EPOCH   = 8664
BSTAR          = .60629E-3
MEAN_MOTION_DOT = .1669E-4
MEAN_MOTION_DDOT = 0

CCSDS_OMM_VERS = 2.0
CREATION_DATE  = 
ORIGINATOR     = 

OBJECT_NAME    = UNKNOWN
OBJECT_ID      = 
CENTER_NAME    = EARTH
REF_FRAME      = TEME
TIME_SYSTEM    = UTC
MEAN_ELEMENT_THEORY = SGP/SGP4

EPOCH          = 2026-02-03T04:42:55.059840
MEAN_MOTION    = 12.37774517
ECCENTRICITY   = .0236837
INCLINATION    = 103.8135
RA_OF_ASC_NODE = 317.6036
ARG_OF_PERICENTER = 146.8821
MEAN_ANOMALY   = 214.7314

EPHEMERIS_TYPE = 0
CLASSIFICATION_TYPE = U
NORAD_CAT_ID   = 81812
ELEMENT_SET_NO = 999
REV_AT_EPOCH   = 54705
BSTAR          = .32745E-1
MEAN_MOTION_DOT = .4628E-4
MEAN_MOTION_DDOT = 0

CCSDS_OMM_VERS = 2.0
CREATION_DATE  = 
ORIGINATOR     = 

OBJECT_NAME    = UNKNOWN
OBJECT_ID      = 
CENTER_NAME    = EARTH
REF_FRAME      = TEME
TIME_SYSTEM    = UTC
MEAN_ELEMENT_THEORY = SGP/SGP4

EPOCH          = 2026-02-02T18:38:14.332992
MEAN_MOTION    = 13.89615994
ECCENTRICITY   = .0175613
INCLINATION    = 66.2378
RA_OF_ASC_NODE = 166.3736
ARG_OF_PERICENTER = 217.2355
MEAN_ANOMALY   = 141.6438

EPHEMERIS_TYPE = 0
CLASSIFICATION_TYPE = U
NORAD_CAT_ID   = 81816
ELEMENT_SET_NO = 999
REV_AT_EPOCH   = 61657
BSTAR          = .12658E-2
MEAN_MOTION_DOT = .1676E-4
MEAN_MOTION_DDOT = 0

CCSDS_OMM_VERS = 2.0
CREATION_DATE  = 
ORIGINATOR     = 

OBJECT_NAME    = UNKNOWN
OBJECT_ID      = 
CENTER_NAME    = EARTH
REF_FRAME      = TEME
TIME_SYSTEM    = UTC
MEAN_ELEMENT_THEORY = SGP/SGP4

EPOCH          = 2026-02-03T11:57:33.602112
MEAN_MOTION    = 12.47778646
ECCENTRICITY   = .0030172
INCLINATION    = 102.1758
RA_OF_ASC_NODE = 137.4066
ARG_OF_PERICENTER = 16.2576
MEAN_ANOMALY   = 343.9452

EPHEMERIS_TYPE = 0
CLASSIFICATION_TYPE = U
NORAD_CAT_ID   = 81819
ELEMENT_SET_NO = 999
REV_AT_EPOCH   = 55459
BSTAR          = .59306E-2
MEAN_MOTION_DOT = .831E-5
MEAN_MOTION_DDOT = 0

CCSDS_OMM_VERS = 2.0
CREATION_DATE  = 
ORIGINATOR     = 

OBJECT_NAME    = UNKNOWN
OBJECT_ID      = 
CENTER_NAME    = EARTH
REF_FRAME      = TEME
TIME_SYSTEM    = UTC
MEAN_ELEMENT_THEORY = SGP/SGP4

EPOCH          = 2026-02-03T10:13:24.974400
MEAN_MOTION    = 14.36086238
ECCENTRICITY   = .0044692
INCLINATION    = 65.8436
RA_OF_ASC_NODE = 193.3792
ARG_OF_PERICENTER = 306.0892
MEAN_ANOMALY   = 53.6066

EPHEMERIS_TYPE = 0
CLASSIFICATION_TYPE = U
NORAD_CAT_ID   = 81824
ELEMENT_SET_NO = 999
REV_AT_EPOCH   = 63215
BSTAR          = .18703E-2
MEAN_MOTION_DOT = .5427E-4
MEAN_MOTION_DDOT = 0

CCSDS_OMM_VERS = 2.0
CREATION_DATE  = 
ORIGINATOR     = 

OBJECT_NAME    = UNKNOWN
OBJECT_ID      = 
CENTER_NAME    = EARTH
REF_FRAME      = TEME
TIME_SYSTEM    = UTC
MEAN_ELEMENT_THEORY = SGP/SGP4

EPOCH          = 2026-01-28T16:13:43.019040
MEAN_MOTION    = 12.93746880
ECCENTRICITY   = .0025148
INCLINATION    = 90.2433
RA_OF_ASC_NODE = 3.9307
ARG_OF_PERICENTER = 261.8702
MEAN_ANOMALY   = 97.9564

EPHEMERIS_TYPE = 0
CLASSIFICATION_TYPE = U
NORAD_CAT_ID   = 81833
ELEMENT_SET_NO = 999
REV_AT_EPOCH   = 45858
BSTAR          = .1318E-2
MEAN_MOTION_DOT = .37E-5
MEAN_MOTION_DDOT = 0

CCSDS_OMM_VERS = 2.0
CREATION_DATE  = 
ORIGINATOR     = 

OBJECT_NAME    = UNKNOWN
OBJECT_ID      = 
CENTER_NAME    = EARTH
REF_FRAME      = TEME
TIME_SYSTEM    = UTC
MEAN_ELEMENT_THEORY = SGP/SGP4

EPOCH          = 2026-01-26T16:46:09.078816
MEAN_MOTION    = 14.57662167
ECCENTRICITY   = .0041952
INCLINATION    = 67.7595
RA_OF_ASC_NODE = 148.7226
ARG_OF_PERICENTER = 323.4616
MEAN_ANOMALY   = 103.9601

EPHEMERIS_TYPE = 0
CLASSIFICATION_TYPE = U
NORAD_CAT_ID   = 81838
ELEMENT_SET_NO = 999
REV_AT_EPOCH   = 63988
BSTAR          = .23584E-2
MEAN_MOTION_DOT = .10833E-3
MEAN_MOTION_DDOT = 0

CCSDS_OMM_VERS = 2.0
CREATION_DATE  = 
ORIGINATOR     = 

OBJECT_NAME    = UNKNOWN
OBJECT_ID      = 
CENTER_NAME    = EARTH
REF_FRAME      = TEME
TIME_SYSTEM    = UTC
MEAN_ELEMENT_THEORY = SGP/SGP4

EPOCH          = 2026-02-03T13:09:51.770304
MEAN_MOTION    = 14.33416240
ECCENTRICITY   = .0061679
INCLINATION    = 82.9068
RA_OF_ASC_NODE = 239.2437
ARG_OF_PERICENTER = 351.2577
MEAN_ANOMALY   = 8.7531

EPHEMERIS_TYPE = 0
CLASSIFICATION_TYPE = U
NORAD_CAT_ID   = 81844
ELEMENT_SET_NO = 999
REV_AT_EPOCH   = 63045
BSTAR          = .19422E-2
MEAN_MOTION_DOT = .549E-4
MEAN_MOTION_DDOT = 0

CCSDS_OMM_VERS = 2.0
CREATION_DATE  = 
ORIGINATOR     = 

OBJECT_NAME    = UNKNOWN
OBJECT_ID      = 
CENTER_NAME    = EARTH
REF_FRAME      = TEME
TIME_SYSTEM    = UTC
MEAN_ELEMENT_THEORY = SGP/SGP4

EPOCH          = 2026-02-03T11:41:33.328320
MEAN_MOTION    = 14.85511968
ECCENTRICITY   = .0088173
INCLINATION    = 97.6756
RA_OF_ASC_NODE = 224.6096
ARG_OF_PERICENTER = 130.8976
MEAN_ANOMALY   = 260.3577

EPHEMERIS_TYPE = 0
CLASSIFICATION_TYPE = U
NORAD_CAT_ID   = 81845
ELEMENT_SET_NO = 999
REV_AT_EPOCH   = 65735
BSTAR          = .41503E-3
MEAN_MOTION_DOT = .3789E-4
MEAN_MOTION_DDOT = 0

CCSDS_OMM_VERS = 2.0
CREATION_DATE  = 
ORIGINATOR     = 

OBJECT_NAME    = UNKNOWN
OBJECT_ID      = 
CENTER_NAME    = EARTH
REF_FRAME      = TEME
TIME_SYSTEM    = UTC
MEAN_ELEMENT_THEORY = SGP/SGP4

EPOCH          = 2026-02-02T03:08:14.204544
MEAN_MOTION    = 13.32666652
ECCENTRICITY   = .0766542
INCLINATION    = 65.6733
RA_OF_ASC_NODE = 306.7363
ARG_OF_PERICENTER = 350.9348
MEAN_ANOMALY   = 7.8479

EPHEMERIS_TYPE = 0
CLASSIFICATION_TYPE = U
NORAD_CAT_ID   = 81864
ELEMENT_SET_NO = 999
REV_AT_EPOCH   = 55768
BSTAR          = .94023E-3
MEAN_MOTION_DOT = .244E-4
MEAN_MOTION_DDOT = 0

CCSDS_OMM_VERS = 2.0
CREATION_DATE  = 
ORIGINATOR     = 

OBJECT_NAME    = UNKNOWN
OBJECT_ID      = 
CENTER_NAME    = EARTH
REF_FRAME      = TEME
TIME_SYSTEM    = UTC
MEAN_ELEMENT_THEORY = SGP/SGP4

EPOCH          = 2026-02-03T08:14:19.703040
MEAN_MOTION    = 13.88194750
ECCENTRICITY   = .0060149
INCLINATION    = 82.8077
RA_OF_ASC_NODE = 348.0682
ARG_OF_PERICENTER = 214.5707
MEAN_ANOMALY   = 300.5827

EPHEMERIS_TYPE = 0
CLASSIFICATION_TYPE = U
NORAD_CAT_ID   = 81865
ELEMENT_SET_NO = 999
REV_AT_EPOCH   = 61584
BSTAR          = .11146E-2
MEAN_MOTION_DOT = .1365E-4
MEAN_MOTION_DDOT = 0

